QIANFAN-176             
1 69393U 26124M   26173.79424291  .00000092  00000+0  35326-4 0  9995
2 69393  88.9984   1.3942 0002908 157.1862 202.9458 14.21841509  2610
QIANFAN-177             
1 69394U 26124N   26173.78894971  .00000102  00000+0  39127-4 0  9996
2 69394  88.9984   1.3934 0004100 133.4497 226.7036 14.22730980  2616
QIANFAN-178             
1 69395U 26124P   26173.79137469  .00000099  00000+0  38164-4 0  9995
2 69395  88.9984   1.3937 0003358 142.2565 217.8863 14.22274516  2615
QIANFAN-179             
1 69396U 26124Q   26173.78610752  .00000085  00000+0  31106-4 0  9990
2 69396  88.9984   1.3928 0003389 138.1234 222.0217 14.23097579  2611
QIANFAN-180             
1 69397U 26124R   26173.85398161  .00000114  00000+0  43640-4 0  9995
2 69397  88.9985   1.3846 0003622 149.1395 211.0011 14.23619234  2621
QIANFAN-181             
1 69398U 26124S   26173.83480740  .00000079  00000+0  32557-4 0  9994
2 69398  88.9984   1.4003 0002740 108.5061 251.6425 14.16649733  2613
QIANFAN-182             
1 69399U 26124T   26173.81741167  .00000100  00000+0  41427-4 0  9997
2 69399  88.9985   1.3977 0002872 130.8763 229.2675 14.18738958  2615
QIANFAN-183             
1 69401U 26125A   26173.77947142  .00000075  00000+0  30455-4 0  9998
2 69401  88.9953 279.8174 0014875 155.8076 204.3814 14.16462192  2492
QIANFAN-184             
1 69402U 26125B   26173.77252680  .00000316  00000+0  15023-3 0  9996
2 69402  88.9953 279.8165 0015779 150.2127 209.9963 14.16882440  2491
QIANFAN-185             
1 69403U 26125C   26173.70448733  .00000313  00000+0  15136-3 0  9998
2 69403  88.9953 279.8247 0016620 151.0185 209.1930 14.16087171  2485
QIANFAN-186             
1 69404U 26125D   26173.76599314  .00000325  00000+0  15341-3 0  9998
2 69404  88.9953 279.8155 0015052 151.5515 208.6499 14.17433290  2497
QIANFAN-187             
1 69405U 26125E   26173.76083822  .00000321  00000+0  14893-3 0  9998
2 69405  88.9953 279.8146 0015556 152.7056 207.4954 14.18343969  2497
QIANFAN-188             
1 69406U 26125F   26173.82474585  .00000352  00000+0  16015-3 0  9998
2 69406  88.9953 279.8054 0015522 156.1018 204.0896 14.19436301  2509
QIANFAN-189             
1 69407U 26125G   26173.82673431  .00000079  00000+0  30875-4 0  9997
2 69407  88.9953 279.8058 0014796 153.3848 206.8104 14.18754997  2501
QIANFAN-190             
1 69408U 26125H   26173.82387874  .00000330  00000+0  15065-3 0  9994
2 69408  88.9953 279.8056 0015546 155.1155 205.0787 14.19218397  2503
QIANFAN-191             
1 69409U 26125J   26173.81744455  .00000358  00000+0  16100-3 0  9997
2 69409  88.9953 279.8044 0014975 153.8642 206.3307 14.20089595  2502
QIANFAN-192             
1 69410U 26125K   26173.81411275  .00000351  00000+0  15668-3 0  9991
2 69410  88.9954 279.8041 0015827 154.3548 205.8430 14.20515498  2507
QIANFAN-193             
1 69411U 26125L   26173.80967213  .00000358  00000+0  15875-3 0  9996
2 69411  88.9953 279.8033 0015707 154.7348 205.4614 14.20958050  2502
QIANFAN-194             
1 69412U 26125M   26173.80693084  .00000346  00000+0  15158-3 0  9990
2 69412  88.9953 279.8028 0014970 158.2809 201.9019 14.21399748  2491
QIANFAN-195             
1 69413U 26125N   26173.80432496  .00000079  00000+0  29180-4 0  9993
2 69413  88.9953 279.8025 0016179 157.1110 203.0805 14.21796426  2507
QIANFAN-196             
1 69414U 26125P   26173.80131069  .00000347  00000+0  14939-3 0  9999
2 69414  88.9954 279.8020 0016279 157.5687 202.6220 14.22292214  2501
QIANFAN-197             
1 69415U 26125Q   26173.79917181  .00000350  00000+0  14984-3 0  9999
2 69415  88.9954 279.8017 0014576 154.3605 205.8312 14.22736691  2498
QIANFAN-198             
1 69416U 26125R   26173.80147801  .00000345  00000+0  14915-3 0  9994
2 69416  88.9953 279.8021 0014896 153.8296 206.3651 14.22063376  2505
QIANFAN-199             
1 69417U 26125S   26173.79515951  .00000083  00000+0  30052-4 0  9998
2 69417  88.9953 279.8010 0016619 155.0152 205.1848 14.23626458  2506
QIANFAN-200             
1 69418U 26125T   26173.81983204  .00000078  00000+0  29918-4 0  9995
2 69418  88.9953 279.8047 0015678 152.8170 207.3844 14.19636733  2508
STARLINK-37537          
1 69420U 26126A   26173.76404530  .00100654  00000+0  66695-3 0  9996
2 69420  97.2842  34.0147 0000693  75.2098 284.9244 15.75218967  3628
STARLINK-37585          
1 69421U 26126B   26173.75345749  .00145558  00000+0  95833-3 0  9990
2 69421  97.2842  34.0301 0000890  92.7730 267.3637 15.75235500  3620
STARLINK-37573          
1 69422U 26126C   26173.76721913  .00167185  00000+0  10974-2 0  9995
2 69422  97.2831  34.0104 0001614 128.9738 231.1672 15.75243110  3629
