OBJECT_NAME,OBJECT_ID,EPOCH,MEAN_MOTION,ECCENTRICITY,INCLINATION,RA_OF_ASC_NODE,ARG_OF_PERICENTER,MEAN_ANOMALY,EPHEMERIS_TYPE,CLASSIFICATION_TYPE,NORAD_CAT_ID,ELEMENT_SET_NO,REV_AT_EPOCH,BSTAR,MEAN_MOTION_DOT,MEAN_MOTION_DDOT
QIANFAN-176,2026-124M,2026-06-22T19:03:42.587424,14.21841509,.00029088,88.9984,1.3942,157.1862,202.9458,0,U,69393,999,261,.35325938E-4,.92E-6,0
QIANFAN-177,2026-124N,2026-06-22T18:56:05.254944,14.22730980,.00041009,88.9984,1.3934,133.4497,226.7036,0,U,69394,999,261,.39127443E-4,.102E-5,0
QIANFAN-178,2026-124P,2026-06-22T18:59:34.773216,14.22274516,.0003358,88.9984,1.3937,142.2565,217.8863,0,U,69395,999,261,.38164486E-4,.99E-6,0
QIANFAN-179,2026-124Q,2026-06-22T18:51:59.689728,14.23097579,.00033896,88.9984,1.3928,138.1234,222.0217,0,U,69396,999,261,.31106442E-4,.85E-6,0
QIANFAN-180,2026-124R,2026-06-22T20:29:44.011104,14.23619234,.00036223,88.9985,1.3846,149.1395,211.0011,0,U,69397,999,262,.43640405E-4,.114E-5,0
QIANFAN-181,2026-124S,2026-06-22T20:02:07.359360,14.16649733,.00027405,88.9984,1.4003,108.5061,251.6425,0,U,69398,999,261,.3255738E-4,.79E-6,0
QIANFAN-182,2026-124T,2026-06-22T19:37:04.368288,14.18738958,.00028726,88.9985,1.3977,130.8763,229.2675,0,U,69399,999,261,.41426573E-4,.1E-5,0
QIANFAN-183,2026-125A,2026-06-22T18:42:26.330688,14.16462192,.00148752,88.9953,279.8174,155.8076,204.3814,0,U,69401,999,249,.30455338E-4,.75E-6,0
QIANFAN-184,2026-125B,2026-06-22T18:32:26.315520,14.16882440,.00157793,88.9953,279.8165,150.2127,209.9963,0,U,69402,999,249,.15022905E-3,.316E-5,0
QIANFAN-185,2026-125C,2026-06-22T16:54:27.705312,14.16087171,.00166203,88.9953,279.8247,151.0185,209.1930,0,U,69403,999,248,.15136059E-3,.313E-5,0
QIANFAN-186,2026-125D,2026-06-22T18:23:01.807296,14.17433290,.00150527,88.9953,279.8155,151.5515,208.6499,0,U,69404,999,249,.15340845E-3,.325E-5,0
QIANFAN-187,2026-125E,2026-06-22T18:15:36.422208,14.18343969,.00155565,88.9953,279.8146,152.7056,207.4954,0,U,69405,999,249,.14893021E-3,.321E-5,0
QIANFAN-188,2026-125F,2026-06-22T19:47:38.041440,14.19436301,.00155229,88.9953,279.8054,156.1018,204.0896,0,U,69406,999,250,.16015447E-3,.352E-5,0
QIANFAN-189,2026-125G,2026-06-22T19:50:29.844384,14.18754997,.00147962,88.9953,279.8058,153.3848,206.8104,0,U,69407,999,250,.30875356E-4,.79E-6,0
QIANFAN-190,2026-125H,2026-06-22T19:46:23.123136,14.19218397,.00155468,88.9953,279.8056,155.1155,205.0787,0,U,69408,999,250,.15065478E-3,.33E-5,0
QIANFAN-191,2026-125J,2026-06-22T19:37:07.209120,14.20089595,.00149757,88.9953,279.8044,153.8642,206.3307,0,U,69409,999,250,.16100089E-3,.358E-5,0
QIANFAN-192,2026-125K,2026-06-22T19:32:19.341600,14.20515498,.00158279,88.9954,279.8041,154.3548,205.8430,0,U,69410,999,250,.15668496E-3,.351E-5,0
QIANFAN-193,2026-125L,2026-06-22T19:25:55.672032,14.20958050,.00157077,88.9953,279.8033,154.7348,205.4614,0,U,69411,999,250,.15874987E-3,.358E-5,0
QIANFAN-194,2026-125M,2026-06-22T19:21:58.824576,14.21399748,.00149704,88.9953,279.8028,158.2809,201.9019,0,U,69412,999,249,.15157697E-3,.346E-5,0
QIANFAN-195,2026-125N,2026-06-22T19:18:13.676544,14.21796426,.00161795,88.9953,279.8025,157.1110,203.0805,0,U,69413,999,250,.29179811E-4,.79E-6,0
QIANFAN-196,2026-125P,2026-06-22T19:13:53.243616,14.22292214,.00162794,88.9954,279.8020,157.5687,202.6220,0,U,69414,999,250,.1493877E-3,.347E-5,0
QIANFAN-197,2026-125Q,2026-06-22T19:10:48.444384,14.22736691,.00145763,88.9954,279.8017,154.3605,205.8312,0,U,69415,999,249,.14984491E-3,.35E-5,0
QIANFAN-198,2026-125R,2026-06-22T19:14:07.700064,14.22063376,.00148967,88.9953,279.8021,153.8296,206.3651,0,U,69416,999,250,.14914764E-3,.345E-5,0
QIANFAN-199,2026-125S,2026-06-22T19:05:01.781664,14.23626458,.00166198,88.9953,279.8010,155.0152,205.1848,0,U,69417,999,250,.30052143E-4,.83E-6,0
QIANFAN-200,2026-125T,2026-06-22T19:40:33.488256,14.19636733,.0015678,88.9953,279.8047,152.8170,207.3844,0,U,69418,999,250,.29917633E-4,.78E-6,0
STARLINK-37537,2026-126A,2026-06-22T18:20:13.513920,15.75218967,.00006938,97.2842,34.0147,75.2098,284.9244,0,U,69420,999,362,.66694553E-3,.100654E-2,0
STARLINK-37585,2026-126B,2026-06-22T18:04:58.727136,15.75235500,.00008901,97.2842,34.0301,92.7730,267.3637,0,U,69421,999,362,.95833042E-3,.145558E-2,0
STARLINK-37573,2026-126C,2026-06-22T18:24:47.732832,15.75243110,.00016143,97.2831,34.0104,128.9738,231.1672,0,U,69422,999,362,.10974165E-2,.167185E-2,0
